{
    "links": {
        "self": "http://www.neowsapp.com/rest/v1/neo/3092294?api_key=iIulBulltgU6a56xZRHN4H3l9WmuAYTsLGpBGhQ2"
    },
    "id": "3092294",
    "neo_reference_id": "3092294",
    "name": "(2001 FB58)",
    "designation": "2001 FB58",
    "nasa_jpl_url": "http://ssd.jpl.nasa.gov/sbdb.cgi?sstr=3092294",
    "absolute_magnitude_h": 21.6,
    "estimated_diameter": {
        "kilometers": {
            "estimated_diameter_min": 0.1272198785,
            "estimated_diameter_max": 0.2844722965
        },
        "meters": {
            "estimated_diameter_min": 127.2198785394,
            "estimated_diameter_max": 284.4722965033
        },
        "miles": {
            "estimated_diameter_min": 0.0790507431,
            "estimated_diameter_max": 0.1767628354
        },
        "feet": {
            "estimated_diameter_min": 417.3880663071,
            "estimated_diameter_max": 933.3080892598
        }
    },
    "is_potentially_hazardous_asteroid": false,
    "close_approach_data": [
        {
            "close_approach_date": "2001-03-26",
            "close_approach_date_full": "2001-Mar-26 06:57",
            "epoch_date_close_approach": 985589820000,
            "relative_velocity": {
                "kilometers_per_second": "6.48852321",
                "kilometers_per_hour": "23358.6835561495",
                "miles_per_hour": "14514.1775685419"
            },
            "miss_distance": {
                "astronomical": "0.1372656566",
                "lunar": "53.3963404174",
                "kilometers": "20534649.851511442",
                "miles": "12759639.7453722196"
            },
            "orbiting_body": "Earth"
        }
    ],
    "orbital_data": {
        "orbit_id": "13",
        "orbit_determination_date": "2017-04-06 09:16:28",
        "first_observation_date": "2001-03-23",
        "last_observation_date": "2001-04-13",
        "data_arc_in_days": 21,
        "observations_used": 25,
        "orbit_uncertainty": "7",
        "minimum_orbit_intersection": ".120409",
        "jupiter_tisserand_invariant": "4.054",
        "epoch_osculation": "2459000.5",
        "eccentricity": ".3583678705852756",
        "semi_major_axis": "1.738340673962523",
        "inclination": "10.52936701001554",
        "ascending_node_longitude": "11.11505321769388",
        "orbital_period": "837.1451487277047",
        "perihelion_distance": "1.115375228282801",
        "perihelion_argument": "168.4290939381885",
        "aphelion_distance": "2.361306119642245",
        "perihelion_time": "2458680.693934688495",
        "mean_anomaly": "137.5271465015559",
        "mean_motion": ".4300329525257703",
        "equinox": "J2000",
        "orbit_class": {
            "orbit_class_type": "AMO",
            "orbit_class_description": "Near-Earth asteroid orbits similar to that of 1221 Amor",
            "orbit_class_range": "1.017 AU < q (perihelion) < 1.3 AU"
        }
    },
    "is_sentry_object": false
}